{
  "norad_id": 58555,
  "name": "HONGHU 2",
  "history": [
    {
      "epoch": "2026-04-10T10:21:07.916832Z",
      "apogee_km": 520.3235732731855,
      "perigee_km": 460.6722266211045,
      "latitude_deg": 3.359149170039873e-05,
      "longitude_deg": 98.96702830378852,
      "height_km": 519.6972816710927,
      "semi_major_axis_km": 6868.634899947145,
      "eccentricity": 0.0043423,
      "inclination_deg": 97.2791,
      "raan_deg": 92.9153,
      "arg_perigee_deg": 151.2693,
      "mean_anomaly_deg": 209.0951,
      "mean_motion_rev_day": 15.2509576
    },
    {
      "epoch": "2026-04-11T21:00:32.857920Z",
      "apogee_km": 523.3668091307618,
      "perigee_km": 464.7634183854789,
      "latitude_deg": 1.0603764731934314e-05,
      "longitude_deg": -60.90750215619986,
      "height_km": 521.331326961729,
      "semi_major_axis_km": 6872.2021137581205,
      "eccentricity": 0.0042638,
      "inclination_deg": 97.2793,
      "raan_deg": 94.318,
      "arg_perigee_deg": 145.8068,
      "mean_anomaly_deg": 214.5929,
      "mean_motion_rev_day": 15.23908447
    },
    {
      "epoch": "2026-04-13T06:06:56.174112Z",
      "apogee_km": 527.1854879842831,
      "perigee_km": 467.32652885081825,
      "latitude_deg": -3.483950213841345e-05,
      "longitude_deg": 162.47331757617064,
      "height_km": 523.5055796506515,
      "semi_major_axis_km": 6875.393008417551,
      "eccentricity": 0.00435313,
      "inclination_deg": 97.2788,
      "raan_deg": 95.6556,
      "arg_perigee_deg": 140.9383,
      "mean_anomaly_deg": 219.5011,
      "mean_motion_rev_day": 15.22847693
    },
    {
      "epoch": "2026-04-14T19:58:37.390080Z",
      "apogee_km": 530.5868364351891,
      "perigee_km": 471.2823601861528,
      "latitude_deg": -1.2747846950165745e-05,
      "longitude_deg": -45.474531188977416,
      "height_km": 525.5982763780286,
      "semi_major_axis_km": 6879.07159831067,
      "eccentricity": 0.0043105,
      "inclination_deg": 97.2798,
      "raan_deg": 97.1844,
      "arg_perigee_deg": 136.9433,
      "mean_anomaly_deg": 223.5189,
      "mean_motion_rev_day": 15.2162634
    },
    {
      "epoch": "2026-04-15T19:39:18.815328Z",
      "apogee_km": 532.346966958622,
      "perigee_km": 473.7152858209047,
      "latitude_deg": -2.420765562589732e-05,
      "longitude_deg": -40.66566107980109,
      "height_km": 525.9064175292916,
      "semi_major_axis_km": 6881.168126389763,
      "eccentricity": 0.0042603,
      "inclination_deg": 97.2799,
      "raan_deg": 98.1383,
      "arg_perigee_deg": 132.7239,
      "mean_anomaly_deg": 227.7596,
      "mean_motion_rev_day": 15.20930988
    },
    {
      "epoch": "2026-04-16T20:55:26.816160Z",
      "apogee_km": 534.6798056978596,
      "perigee_km": 475.55814348091735,
      "latitude_deg": -6.924574379507613e-05,
      "longitude_deg": -59.71974654849018,
      "height_km": 526.5349619543972,
      "semi_major_axis_km": 6883.255974589389,
      "eccentricity": 0.0042946,
      "inclination_deg": 97.2797,
      "raan_deg": 99.1553,
      "arg_perigee_deg": 128.607,
      "mean_anomaly_deg": 231.9023,
      "mean_motion_rev_day": 15.20239041
    },
    {
      "epoch": "2026-04-17T22:12:24.356160Z",
      "apogee_km": 538.3321463595212,
      "perigee_km": 477.6916175213337,
      "latitude_deg": 3.885323900610264e-06,
      "longitude_deg": -78.9820260663119,
      "height_km": 528.6428495716341,
      "semi_major_axis_km": 6886.148881940428,
      "eccentricity": 0.00440308,
      "inclination_deg": 97.2797,
      "raan_deg": 100.1711,
      "arg_perigee_deg": 125.6593,
      "mean_anomaly_deg": 234.8754,
      "mean_motion_rev_day": 15.19281151
    },
    {
      "epoch": "2026-04-18T20:20:22.799904Z",
      "apogee_km": 540.2951936012796,
      "perigee_km": 479.75650793843306,
      "latitude_deg": 3.01975017890916e-05,
      "longitude_deg": -50.995710876520285,
      "height_km": 529.1168318098196,
      "semi_major_axis_km": 6888.162850769856,
      "eccentricity": 0.0043944,
      "inclination_deg": 97.2795,
      "raan_deg": 101.0599,
      "arg_perigee_deg": 122.2362,
      "mean_anomaly_deg": 238.3144,
      "mean_motion_rev_day": 15.18614886
    },
    {
      "epoch": "2026-04-19T20:03:54.643104Z",
      "apogee_km": 542.3250054742184,
      "perigee_km": 481.8042305422814,
      "latitude_deg": 5.18027844491311e-05,
      "longitude_deg": -46.900166829076134,
      "height_km": 529.540725589501,
      "semi_major_axis_km": 6890.201618008249,
      "eccentricity": 0.0043918,
      "inclination_deg": 97.2797,
      "raan_deg": 102.0125,
      "arg_perigee_deg": 118.7209,
      "mean_anomaly_deg": 241.845,
      "mean_motion_rev_day": 15.17940913
    },
    {
      "epoch": "2026-04-20T13:28:08.245056Z",
      "apogee_km": 542.9643407380763,
      "perigee_km": 482.5882258239535,
      "latitude_deg": 3.1137066974932216e-05,
      "longitude_deg": 52.025511770956335,
      "height_km": 528.9429082291997,
      "semi_major_axis_km": 6890.913283281015,
      "eccentricity": 0.00438085,
      "inclination_deg": 97.2797,
      "raan_deg": 102.7096,
      "arg_perigee_deg": 116.0102,
      "mean_anomaly_deg": 244.5654,
      "mean_motion_rev_day": 15.17705769
    },
    {
      "epoch": "2026-04-21T19:32:13.926048Z",
      "apogee_km": 543.9243468972345,
      "perigee_km": 483.96187153105075,
      "latitude_deg": -1.2967815679929955e-06,
      "longitude_deg": -39.028016942267065,
      "height_km": 527.8861980974314,
      "semi_major_axis_km": 6892.080109214143,
      "eccentricity": 0.0043501,
      "inclination_deg": 97.2797,
      "raan_deg": 103.9146,
      "arg_perigee_deg": 111.5724,
      "mean_anomaly_deg": 249.0154,
      "mean_motion_rev_day": 15.17320365
    },
    {
      "epoch": "2026-04-22T17:41:51.891360Z",
      "apogee_km": 545.0787867504532,
      "perigee_km": 484.4282431095844,
      "latitude_deg": 3.4386121111256866e-05,
      "longitude_deg": -11.458913835962923,
      "height_km": 527.3141218220485,
      "semi_major_axis_km": 6892.890514930019,
      "eccentricity": 0.0043995,
      "inclination_deg": 97.2795,
      "raan_deg": 104.802,
      "arg_perigee_deg": 108.5562,
      "mean_anomaly_deg": 252.0459,
      "mean_motion_rev_day": 15.17052783
    },
    {
      "epoch": "2026-04-23T12:41:47.749632Z",
      "apogee_km": 546.2663105622069,
      "perigee_km": 485.30157524466813,
      "latitude_deg": -1.083044360476301e-05,
      "longitude_deg": 63.53769250583547,
      "height_km": 527.2931053811824,
      "semi_major_axis_km": 6893.920942903437,
      "eccentricity": 0.00442163,
      "inclination_deg": 97.28,
      "raan_deg": 105.5616,
      "arg_perigee_deg": 106.3971,
      "mean_anomaly_deg": 254.213,
      "mean_motion_rev_day": 15.16712667
    },
    {
      "epoch": "2026-04-24T20:22:12.113184Z",
      "apogee_km": 548.0734745333566,
      "perigee_km": 486.75272659904203,
      "latitude_deg": 5.790255170005941e-06,
      "longitude_deg": -51.597507734232565,
      "height_km": 526.919687165412,
      "semi_major_axis_km": 6895.550100566199,
      "eccentricity": 0.0044464,
      "inclination_deg": 97.2796,
      "raan_deg": 106.8287,
      "arg_perigee_deg": 102.4518,
      "mean_anomaly_deg": 258.1696,
      "mean_motion_rev_day": 15.16175186
    },
    {
      "epoch": "2026-04-25T20:07:55.167744Z",
      "apogee_km": 548.9901131752304,
      "perigee_km": 488.0292737224963,
      "latitude_deg": 9.90102442240146e-06,
      "longitude_deg": -48.05327144602641,
      "height_km": 526.2168060029574,
      "semi_major_axis_km": 6896.646693448863,
      "eccentricity": 0.0044196,
      "inclination_deg": 97.2798,
      "raan_deg": 107.7782,
      "arg_perigee_deg": 99.0872,
      "mean_anomaly_deg": 261.5366,
      "mean_motion_rev_day": 15.15813584
    },
    {
      "epoch": "2026-04-26T23:04:11.052192Z",
      "apogee_km": 550.21081534738,
      "perigee_km": 489.5337184726741,
      "latitude_deg": 1.0993236647823297e-05,
      "longitude_deg": -92.149650164859,
      "height_km": 525.5388970523212,
      "semi_major_axis_km": 6898.009266910027,
      "eccentricity": 0.00439816,
      "inclination_deg": 97.2795,
      "raan_deg": 108.8543,
      "arg_perigee_deg": 95.2494,
      "mean_anomaly_deg": 265.376,
      "mean_motion_rev_day": 15.15364475
    }
  ]
}